0 FENGYUN 1C DEB
1 31557U 99025BYY 13282.37959459  .00000505  00000-0  16618-3 0  2148
2 31557 098.6391 327.3053 0188327 233.6560 124.7114 14.33246820338137
0 FENGYUN 1C DEB
1 31557U 99025BYY 13290.89671812  .00000568  00000-0  18451-3 0  2155
2 31557 098.6420 335.8160 0188479 208.1565 151.0040 14.33258568339351
0 FENGYUN 1C DEB
1 31557U 99025BYY 13294.38731979  .00000592  00000-0  19151-3 0  2160
2 31557 098.6407 339.2978 0188733 198.3603 161.1070 14.33263976339856
